GEO-KOMPSAT-2A          
1 43823U 18100A   26095.55649840 -.00000342  00000+0  00000+0 0  9991
2 43823   0.0518  36.3478 0001956  24.9080 101.2001  1.00273238 26909
GSAT-11                 
1 43824U 18100B   26095.55295838 -.00000075  00000+0  00000+0 0  9999
2 43824   0.0708 261.1886 0006573 163.8747  41.8322  1.00272106 26745
GSAT-7A                 
1 43864U 18105A   26095.61465007  .00000028  00000+0  00000+0 0  9999
2 43864   0.0259 301.8282 0002356  84.0590  92.0920  1.00272871 26726
COSMOS 2533             
1 43867U 18107A   26094.19015321 -.00000039  00000+0  00000+0 0  9999
2 43867   0.0329 112.4058 0000447  16.7453 201.8351  1.00271339 26707
TJS-3                   
1 43874U 18110A   26093.69941679 -.00000281  00000+0  00000+0 0  9998
2 43874   2.3532  81.3751 0018142 347.4720 109.8481  1.00340597 26672
ZHONGXING-2D            
1 43920U 19001A   26095.55684507 -.00000335  00000+0  00000+0 0  9991
2 43920   0.0575  39.3272 0000614 281.9575 203.0420  1.00273677 53351
HELLAS-SAT 4 & SGS-1    
1 44034U 19007A   26095.53881835  .00000154  00000+0  00000+0 0  9993
2 44034   0.0683 125.9916 0003472   9.1091 291.7357  1.00272034 26633
GSAT-31                 
1 44035U 19007B   26095.54055168  .00000127  00000+0  00000+0 0  9997
2 44035   0.0163 253.0438 0003773  77.2046 106.0500  1.00272442 26236
NUSANTARA SATU          
1 44048U 19009A   26095.56086498 -.00000233  00000+0  00000+0 0  9994
2 44048   0.0291 145.6674 0002662 304.1123  92.0001  1.00272602 26041
ZHONGXING-6C            
1 44067U 19012A   26095.55693174 -.00000334  00000+0  00000+0 0  9995
2 44067   0.0597  46.4189 0011002 349.9303 128.4129  1.00273431 26018
WGS 10 (USA 291)        
1 44071U 19014A   26092.11622337  .00000000  00000+0  00000+0 0  9993
2 44071   0.0193 184.3175 0000553 194.2754 274.0080  1.00270221 25851
TIANLIAN 2-01           
1 44076U 19017A   26095.61948714 -.00000105  00000+0  00000+0 0  9996
2 44076   0.3524  82.5020 0002064 255.7250 155.7135  1.00272361 25929
ARABSAT-6A              
1 44186U 19021A   26095.03795200  .00000154  00000+0  00000+0 0  9992
2 44186   0.0673  28.8897 0002467 342.3503 226.2309  1.00270433 25429
BEIDOU-3 IGSO-1         
1 44204U 19023A   26090.65189120 -.00000226  00000+0  00000+0 0  9997
2 44204  58.5926  38.4466 0025189 236.5952 266.8923  1.00262964  6438
BEIDOU-2 G8             
1 44231U 19027A   26095.55970508 -.00000244  00000+0  00000+0 0  9993
2 44231   1.4745  74.3181 0011526 276.8344 188.7018  1.00275482 25357
YAMAL 601               
1 44307U 19031A   26094.54249763  .00000000  00000+0  00000+0 0  9991
2 44307   0.0179 206.5024 0002570 176.4908  54.1716  1.00272171 25175
AT&T T-16               
1 44333U 19034A   26095.51108488 -.00000114  00000+0  00000+0 0  9996
2 44333   0.0246 106.8777 0001060  70.7609  99.3083  1.00271803 24902
