[{"OBJECT_NAME":"GEO-KOMPSAT-2A","OBJECT_ID":"2018-100A","EPOCH":"2026-04-05T13:21:21.461760","MEAN_MOTION":1.00273238,"ECCENTRICITY":0.00019562,"INCLINATION":0.0518,"RA_OF_ASC_NODE":36.3478,"ARG_OF_PERICENTER":24.908,"MEAN_ANOMALY":101.2001,"EPHEMERIS_TYPE":0,"CLASSIFICATION_TYPE":"U","NORAD_CAT_ID":43823,"ELEMENT_SET_NO":999,"REV_AT_EPOCH":2690,"BSTAR":0,"MEAN_MOTION_DOT":-3.42e-6,"MEAN_MOTION_DDOT":0},{"OBJECT_NAME":"GSAT-11","OBJECT_ID":"2018-100B","EPOCH":"2026-04-05T13:16:15.604032","MEAN_MOTION":1.00272106,"ECCENTRICITY":0.0006573,"INCLINATION":0.0708,"RA_OF_ASC_NODE":261.1886,"ARG_OF_PERICENTER":163.8747,"MEAN_ANOMALY":41.8322,"EPHEMERIS_TYPE":0,"CLASSIFICATION_TYPE":"U","NORAD_CAT_ID":43824,"ELEMENT_SET_NO":999,"REV_AT_EPOCH":2674,"BSTAR":0,"MEAN_MOTION_DOT":-7.5e-7,"MEAN_MOTION_DDOT":0},{"OBJECT_NAME":"GSAT-7A","OBJECT_ID":"2018-105A","EPOCH":"2026-04-05T14:45:05.766048","MEAN_MOTION":1.00272871,"ECCENTRICITY":0.00023566,"INCLINATION":0.0259,"RA_OF_ASC_NODE":301.8282,"ARG_OF_PERICENTER":84.059,"MEAN_ANOMALY":92.092,"EPHEMERIS_TYPE":0,"CLASSIFICATION_TYPE":"U","NORAD_CAT_ID":43864,"ELEMENT_SET_NO":999,"REV_AT_EPOCH":2672,"BSTAR":0,"MEAN_MOTION_DOT":2.8e-7,"MEAN_MOTION_DDOT":0},{"OBJECT_NAME":"COSMOS 2533","OBJECT_ID":"2018-107A","EPOCH":"2026-04-04T04:33:49.237344","MEAN_MOTION":1.00271339,"ECCENTRICITY":4.479e-5,"INCLINATION":0.0329,"RA_OF_ASC_NODE":112.4058,"ARG_OF_PERICENTER":16.7453,"MEAN_ANOMALY":201.8351,"EPHEMERIS_TYPE":0,"CLASSIFICATION_TYPE":"U","NORAD_CAT_ID":43867,"ELEMENT_SET_NO":999,"REV_AT_EPOCH":2670,"BSTAR":0,"MEAN_MOTION_DOT":-3.9e-7,"MEAN_MOTION_DDOT":0},{"OBJECT_NAME":"TJS-3","OBJECT_ID":"2018-110A","EPOCH":"2026-04-03T16:47:09.610656","MEAN_MOTION":1.00340597,"ECCENTRICITY":0.0018142,"INCLINATION":2.3532,"RA_OF_ASC_NODE":81.3751,"ARG_OF_PERICENTER":347.472,"MEAN_ANOMALY":109.8481,"EPHEMERIS_TYPE":0,"CLASSIFICATION_TYPE":"U","NORAD_CAT_ID":43874,"ELEMENT_SET_NO":999,"REV_AT_EPOCH":2667,"BSTAR":0,"MEAN_MOTION_DOT":-2.81e-6,"MEAN_MOTION_DDOT":0},{"OBJECT_NAME":"ZHONGXING-2D","OBJECT_ID":"2019-001A","EPOCH":"2026-04-05T13:21:51.414048","MEAN_MOTION":1.00273677,"ECCENTRICITY":6.144e-5,"INCLINATION":0.0575,"RA_OF_ASC_NODE":39.3272,"ARG_OF_PERICENTER":281.9575,"MEAN_ANOMALY":203.042,"EPHEMERIS_TYPE":0,"CLASSIFICATION_TYPE":"U","NORAD_CAT_ID":43920,"ELEMENT_SET_NO":999,"REV_AT_EPOCH":5335,"BSTAR":0,"MEAN_MOTION_DOT":-3.35e-6,"MEAN_MOTION_DDOT":0},{"OBJECT_NAME":"HELLAS-SAT 4 & SGS-1","OBJECT_ID":"2019-007A","EPOCH":"2026-04-05T12:55:53.905440","MEAN_MOTION":1.00272034,"ECCENTRICITY":0.00034729,"INCLINATION":0.0683,"RA_OF_ASC_NODE":125.9916,"ARG_OF_PERICENTER":9.1091,"MEAN_ANOMALY":291.7357,"EPHEMERIS_TYPE":0,"CLASSIFICATION_TYPE":"U","NORAD_CAT_ID":44034,"ELEMENT_SET_NO":999,"REV_AT_EPOCH":2663,"BSTAR":0,"MEAN_MOTION_DOT":1.54e-6,"MEAN_MOTION_DDOT":0},{"OBJECT_NAME":"GSAT-31","OBJECT_ID":"2019-007B","EPOCH":"2026-04-05T12:58:23.665152","MEAN_MOTION":1.00272442,"ECCENTRICITY":0.00037732,"INCLINATION":0.0163,"RA_OF_ASC_NODE":253.0438,"ARG_OF_PERICENTER":77.2046,"MEAN_ANOMALY":106.05,"EPHEMERIS_TYPE":0,"CLASSIFICATION_TYPE":"U","NORAD_CAT_ID":44035,"ELEMENT_SET_NO":999,"REV_AT_EPOCH":2623,"BSTAR":0,"MEAN_MOTION_DOT":1.27e-6,"MEAN_MOTION_DDOT":0},{"OBJECT_NAME":"NUSANTARA SATU","OBJECT_ID":"2019-009A","EPOCH":"2026-04-05T13:27:38.734272","MEAN_MOTION":1.00272602,"ECCENTRICITY":0.00026621,"INCLINATION":0.0291,"RA_OF_ASC_NODE":145.6674,"ARG_OF_PERICENTER":304.1123,"MEAN_ANOMALY":92.0001,"EPHEMERIS_TYPE":0,"CLASSIFICATION_TYPE":"U","NORAD_CAT_ID":44048,"ELEMENT_SET_NO":999,"REV_AT_EPOCH":2604,"BSTAR":0,"MEAN_MOTION_DOT":-2.33e-6,"MEAN_MOTION_DDOT":0},{"OBJECT_NAME":"ZHONGXING-6C","OBJECT_ID":"2019-012A","EPOCH":"2026-04-05T13:21:58.902336","MEAN_MOTION":1.00273431,"ECCENTRICITY":0.00110026,"INCLINATION":0.0597,"RA_OF_ASC_NODE":46.4189,"ARG_OF_PERICENTER":349.9303,"MEAN_ANOMALY":128.4129,"EPHEMERIS_TYPE":0,"CLASSIFICATION_TYPE":"U","NORAD_CAT_ID":44067,"ELEMENT_SET_NO":999,"REV_AT_EPOCH":2601,"BSTAR":0,"MEAN_MOTION_DOT":-3.34e-6,"MEAN_MOTION_DDOT":0},{"OBJECT_NAME":"WGS 10 (USA 291)","OBJECT_ID":"2019-014A","EPOCH":"2026-04-02T02:47:21.699168","MEAN_MOTION":1.00270221,"ECCENTRICITY":5.537e-5,"INCLINATION":0.0193,"RA_OF_ASC_NODE":184.3175,"ARG_OF_PERICENTER":194.2754,"MEAN_ANOMALY":274.008,"EPHEMERIS_TYPE":0,"CLASSIFICATION_TYPE":"U","NORAD_CAT_ID":44071,"ELEMENT_SET_NO":999,"REV_AT_EPOCH":2585,"BSTAR":0,"MEAN_MOTION_DOT":0,"MEAN_MOTION_DDOT":0},{"OBJECT_NAME":"TIANLIAN 2-01","OBJECT_ID":"2019-017A","EPOCH":"2026-04-05T14:52:03.688896","MEAN_MOTION":1.00272361,"ECCENTRICITY":0.00020647,"INCLINATION":0.3524,"RA_OF_ASC_NODE":82.502,"ARG_OF_PERICENTER":255.725,"MEAN_ANOMALY":155.7135,"EPHEMERIS_TYPE":0,"CLASSIFICATION_TYPE":"U","NORAD_CAT_ID":44076,"ELEMENT_SET_NO":999,"REV_AT_EPOCH":2592,"BSTAR":0,"MEAN_MOTION_DOT":-1.05e-6,"MEAN_MOTION_DDOT":0},{"OBJECT_NAME":"ARABSAT-6A","OBJECT_ID":"2019-021A","EPOCH":"2026-04-05T00:54:39.052800","MEAN_MOTION":1.00270433,"ECCENTRICITY":0.00024673,"INCLINATION":0.0673,"RA_OF_ASC_NODE":28.8897,"ARG_OF_PERICENTER":342.3503,"MEAN_ANOMALY":226.2309,"EPHEMERIS_TYPE":0,"CLASSIFICATION_TYPE":"U","NORAD_CAT_ID":44186,"ELEMENT_SET_NO":999,"REV_AT_EPOCH":2542,"BSTAR":0,"MEAN_MOTION_DOT":1.54e-6,"MEAN_MOTION_DDOT":0},{"OBJECT_NAME":"BEIDOU-3 IGSO-1","OBJECT_ID":"2019-023A","EPOCH":"2026-03-31T15:38:43.399680","MEAN_MOTION":1.00262964,"ECCENTRICITY":0.00251896,"INCLINATION":58.5926,"RA_OF_ASC_NODE":38.4466,"ARG_OF_PERICENTER":236.5952,"MEAN_ANOMALY":266.8923,"EPHEMERIS_TYPE":0,"CLASSIFICATION_TYPE":"U","NORAD_CAT_ID":44204,"ELEMENT_SET_NO":999,"REV_AT_EPOCH":643,"BSTAR":0,"MEAN_MOTION_DOT":-2.26e-6,"MEAN_MOTION_DDOT":0},{"OBJECT_NAME":"BEIDOU-2 G8","OBJECT_ID":"2019-027A","EPOCH":"2026-04-05T13:25:58.518912","MEAN_MOTION":1.00275482,"ECCENTRICITY":0.0011526,"INCLINATION":1.4745,"RA_OF_ASC_NODE":74.3181,"ARG_OF_PERICENTER":276.8344,"MEAN_ANOMALY":188.7018,"EPHEMERIS_TYPE":0,"CLASSIFICATION_TYPE":"U","NORAD_CAT_ID":44231,"ELEMENT_SET_NO":999,"REV_AT_EPOCH":2535,"BSTAR":0,"MEAN_MOTION_DOT":-2.44e-6,"MEAN_MOTION_DDOT":0},{"OBJECT_NAME":"YAMAL 601","OBJECT_ID":"2019-031A","EPOCH":"2026-04-04T13:01:11.795232","MEAN_MOTION":1.00272171,"ECCENTRICITY":0.00025704,"INCLINATION":0.0179,"RA_OF_ASC_NODE":206.5024,"ARG_OF_PERICENTER":176.4908,"MEAN_ANOMALY":54.1716,"EPHEMERIS_TYPE":0,"CLASSIFICATION_TYPE":"U","NORAD_CAT_ID":44307,"ELEMENT_SET_NO":999,"REV_AT_EPOCH":2517,"BSTAR":0,"MEAN_MOTION_DOT":0,"MEAN_MOTION_DDOT":0},{"OBJECT_NAME":"AT&T T-16","OBJECT_ID":"2019-034A","EPOCH":"2026-04-05T12:15:57.733632","MEAN_MOTION":1.00271803,"ECCENTRICITY":0.00010601,"INCLINATION":0.0246,"RA_OF_ASC_NODE":106.8777,"ARG_OF_PERICENTER":70.7609,"MEAN_ANOMALY":99.3083,"EPHEMERIS_TYPE":0,"CLASSIFICATION_TYPE":"U","NORAD_CAT_ID":44333,"ELEMENT_SET_NO":999,"REV_AT_EPOCH":2490,"BSTAR":0,"MEAN_MOTION_DOT":-1.14e-6,"MEAN_MOTION_DDOT":0}]
